GALAXY 25 (G-25)        
1 24812U 97026A   22223.13868667 -.00000021  00000+0  00000+0 0  9999
2 24812   3.8228  83.1276 0004183  27.9988 324.4865  1.00272478 92271
INTELSAT 5 (IS-5)       
1 24916U 97046A   22223.55502564 -.00000080  00000+0  00000+0 0  9998
2 24916   7.3416  60.6779 0003596 109.7848 155.4835  1.00272407 91521
GALAXY 11 (G-11)        
1 26038U 99071A   22223.51929187 -.00000180  00000+0  00000+0 0  9996
2 26038   3.1386  87.0497 0000090 165.9917 160.7479  1.00270592 82981
INTELSAT 9 (IS-9)       
1 26451U 00043A   22223.45609204 -.00000305  00000+0  00000+0 0  9993
2 26451   7.3271  60.8563 0002599  85.5300 287.6935  1.00269567 30058
INTELSAT 1R (IS-1R)     
1 26608U 00072A   22223.58855032 -.00000157  00000+0  00000+0 0  9990
2 26608   4.6027  80.1218 0000659 303.5082 305.3587  1.00271370 27229
INTELSAT 10 (IS-10)     
1 26766U 01019A   22223.56989723  .00000015  00000+0  00000+0 0  9992
2 26766   5.7050  72.9068 0002842  49.0953 220.9578  1.00270437 31522
INTELSAT 901 (IS-901)   
1 26824U 01024A   22223.49632667 -.00000219  00000+0  00000+0 0  9994
2 26824   0.0656 267.8598 0001262 239.1887 324.0581  1.00270005  8887
INTELSAT 902 (IS-902)   
1 26900U 01039A   22223.45609204 -.00000300  00000+0  00000+0 0  9993
2 26900   2.5396  88.4349 0002499  61.0970 284.4551  1.00272344 76596
INTELSAT 904 (IS-904)   
1 27380U 02007A   22223.46019045 -.00000232  00000+0  00000+0 0  9995
2 27380   3.3714  85.3785 0003105  54.9239 315.7556  1.00270742 37675
DIRECTV 5 (TEMPO 1)     
1 27426U 02023A   22223.55459101 -.00000073  00000+0  00000+0 0  9998
2 27426   1.2644  92.6081 0003457  49.3444 267.5539  1.00271201 74027
INTELSAT 905 (IS-905)   
1 27438U 02027A   22223.46114965 -.00000203  00000+0  00000+0 0  9996
2 27438   3.1932  86.1170 0002831  59.6422 315.6503  1.00270152 37279
GALAXY 3C (G-3C)        
1 27445U 02030A   22223.03869027 -.00000167  00000+0  00000+0 0  9996
2 27445   0.1094  80.2631 0000515 321.6915 196.6002  1.00269960 32390
INTELSAT 906 (IS-906)   
1 27513U 02041A   22223.43591042 -.00000003  00000+0  00000+0 0  9996
2 27513   2.2083  89.9061 0003098  54.2060  36.8226  1.00272653 72939
GALAXY 12 (G-12)        
1 27715U 03013B   22223.37587486  .00000040  00000+0  00000+0 0  9990
2 27715   3.4040  85.0129 0002046  60.2856 180.8190  1.00270944 37991
GALAXY 23 (G-23)        
1 27854U 03034A   22223.54295326 -.00000003  00000+0  00000+0 0  9995
2 27854   0.0503 260.8555 0002857 244.3184 249.2716  1.00271737 69649
GALAXY 13 (HORIZONS-1)  
1 27954U 03044A   22223.37722743  .00000033  00000+0  00000+0 0  9998
2 27954   0.0198  90.4193 0002119  92.6039 145.5556  1.00270274 32475
INTELSAT 10-02          
1 28358U 04022A   22223.43432602 -.00000027  00000+0  00000+0 0  9997
2 28358   0.0639 264.6026 0000815 242.3587 328.2756  1.00270319 66454
XM-3 (RHYTHM)           
1 28626U 05008A   22223.52086147 -.00000221  00000+0  00000+0 0  9995
2 28626   0.0290 213.4651 0001696 317.0658 251.8236  1.00269651 28525
DIRECTV 8               
1 28659U 05019A   22223.54471830 -.00000015  00000+0  00000+0 0  9993
2 28659   0.0123 104.6933 0002863  33.5747 258.7484  1.00271401 62970
GALAXY 28 (G-28)        
1 28702U 05022A   22223.52007667 -.00000201  00000+0  00000+0 0  9994
2 28702   0.0229  58.9776 0002039  87.6008 271.6005  1.00270607 37889
GALAXY 14 (G-14)        
1 28790U 05030A   22223.47266010  .00000138  00000+0  00000+0 0  9991
2 28790   1.3977  91.6977 0002252  45.5428  25.7236  1.00274001 62214
GALAXY 15 (G-15)        
1 28884U 05041A   22223.43952396  .00000063  00000+0  00000+0 0  9999
2 28884   0.0549 281.4732 0001611 224.1792 199.4394  1.00270881 61512
SPACEWAY 2              
1 28903U 05046B   22223.51998872  .00000086  00000+0  00000+0 0  9999
2 28903   2.0288  87.3298 0000303 166.9862 113.9161  1.00271880 37240
GALAXY 16 (G-16)        
1 29236U 06023A   22223.56798406 -.00000143  00000+0  00000+0 0  9996
2 29236   0.0582 272.4313 0003016 231.2536 281.7704  1.00272195 58877
DIRECTV 9S              
1 29494U 06043A   22223.56621993 -.00000129  00000+0  00000+0 0  9994
2 29494   0.0137 104.7893 0003200  34.5470 283.2928  1.00270583 37281
XM-4 (BLUES)            
1 29520U 06049A   22223.23388056 -.00000220  00000+0  00000+0 0  9996
2 29520   0.0648 287.0961 0001193  38.9937 352.6550  1.00269860 37372
GALAXY 17 (G-17)        
1 31307U 07016B   22223.51964066 -.00000190  00000+0  00000+0 0  9995
2 31307   0.0167  75.8023 0002718  68.7897 271.4122  1.00270562 55707
DIRECTV 10              
1 31862U 07032A   22223.37383712 -.00000119  00000+0  00000+0 0  9997
2 31862   0.0036 317.6088 0000504 180.2621 213.7248  1.00276643 31496
SPACEWAY 3              
1 32018U 07036A   22223.51885587 -.00000168  00000+0  00000+0 0  9992
2 32018   0.3617  89.9317 0000461  34.1049 287.7458  1.00271081 32457
INTELSAT 11 (IS-11)     
1 32253U 07044B   22223.16854937 -.00000284  00000+0  00000+0 0  9997
2 32253   0.0273  98.6263 0002148  67.0239 171.6432  1.00267528 54391
HORIZONS-2              
1 32388U 07063B   22223.26993590 -.00000027  00000+0  00000+0 0  9992
2 32388   0.0106  28.5103 0004517  67.5986 333.3092  0.99711023 53711
DIRECTV 11              
1 32729U 08013A   22223.37453472 -.00000141  00000+0  00000+0 0  9996
2 32729   0.0035 290.0930 0000220 267.5326 157.8174  1.00270928 31490
GALAXY 18 (G-18)        
1 32951U 08024A   22223.44152956  .00000009  00000+0  00000+0 0  9998
2 32951   0.0219 107.5752 0003265  33.5547 214.6879  1.00271439 31754
INTELSAT 25 (IS-25)     
1 33153U 08034A   22223.03880646 -.00000239  00000+0  00000+0 0  9999
2 33153   0.0151 122.8304 0003298  24.4881 154.6201  1.00271215 51591
GALAXY 19 (G-19)        
1 33376U 08045A   22223.57131161 -.00000155  00000+0  00000+0 0  9995
2 33376   0.0589 275.7143 0003336 233.7275 279.2190  1.00270543 50804
FM-5                    
1 35493U 09034A   22223.44894160 -.00000216  00000+0  00000+0 0  9995
2 35493   0.0177  84.8089 0000501 328.8980 341.6305  1.00269669 32547
INTELSAT 14 (IS-14)     
1 36097U 09064A   22223.45713844 -.00000290  00000+0  00000+0 0  9991
2 36097   0.0145  85.4989 0002768  59.2581 294.7013  1.00270556 46500
INTELSAT 15 (IS-15)     
1 36106U 09067A   22223.50466112 -.00000201  00000+0  00000+0 0  9996
2 36106   0.0155  46.4622 0002697 101.6110  78.6741  1.00269233 27139
DIRECTV 12              
1 36131U 09075A   22223.37383712 -.00000119  00000+0  00000+0 0  9990
2 36131   0.0417 264.8594 0000218 307.4371 139.3765  1.00270849 32462
INTELSAT 16 (IS-16)     
1 36397U 10006A   22223.52260549 -.00000260  00000+0  00000+0 0  9996
2 36397   0.0127  46.2368 0002470  95.8734 289.7667  1.00268608 45553
XM-5                    
1 37185U 10053A   22223.29962962 -.00000039  00000+0  00000+0 0  9990
2 37185   0.0157  79.3723 0000705 328.1623 264.8570  1.00275229 43385
INTELSAT 17 (IS-17)     
1 37238U 10065B   22223.52827142 -.00000018  00000+0  00000+0 0  9995
2 37238   0.0368 227.7052 0002414 270.9324  77.4793  1.00271984 39141
INTELSAT NEW DAWN       
1 37392U 11016A   22223.47266010  .00000139  00000+0  00000+0 0  9991
2 37392   0.0131 147.1995 0001293 331.5197  44.1433  1.00271523 39193
INTELSAT 18 (IS-18)     
1 37834U 11056A   22223.57267892  .00000036  00000+0  00000+0 0  9992
2 37834   0.0227  21.1161 0002327 121.9662 203.0769  1.00271329 39713
INTELSAT 22 (IS-22)     
1 38098U 12011A   22223.58243976 -.00000075  00000+0  00000+0 0  9999
2 38098   0.0078  69.1539 0002728  86.1070  86.5255  1.00271635 37724
INTELSAT 19 (IS-19)     
1 38356U 12030A   22223.55419125 -.00000073  00000+0  00000+0 0  9993
2 38356   0.0130  95.0322 0003213  45.7899 184.6675  1.00271366 36342
INTELSAT 20 (IS-20)     
1 38740U 12043A   22223.20882556 -.00000040  00000+0  00000+0 0  9992
2 38740   0.0197 111.4293 0001383  79.7068 272.1710  1.00270883 36653
INTELSAT 21 (IS-21)     
1 38749U 12045A   22223.45452243 -.00000301  00000+0  00000+0 0  9996
2 38749   0.0140  86.3016 0002417  58.7099 280.4891  1.00269575 36437
INTELSAT 23 (IS-23)     
1 38867U 12057A   22223.45548163 -.00000301  00000+0  00000+0 0  9997
2 38867   0.0129 114.9345 0001347  53.5478 262.3732  1.00264441 35847
FM-6                    
1 39360U 13058A   22223.27519152 -.00000032  00000+0  00000+0 0  9995
2 39360   0.0507 267.3854 0000269 111.0430 284.1821  1.00272784 31963
INTELSAT 30 (IS-30)     
1 40271U 14062A   22220.75787992 -.00000156  00000+0  00000+0 0  9990
2 40271   0.0064  51.5982 0002243  25.6762  57.7390  1.00271331 28644
DIRECTV 14              
1 40333U 14078B   22223.56797969 -.00000141  00000+0  00000+0 0  9997
2 40333   0.0133  87.3686 0000814 102.5197 235.3541  1.00269765 27961
DIRECTV 15              
1 40663U 15026A   22223.30207123 -.00000118  00000+0  00000+0 0  9991
2 40663   0.0126  98.7920 0000620 317.4536 269.3542  1.00274364 26367
SKY MEXICO-1            
1 40664U 15026B   22223.45033681 -.00000250  00000+0  00000+0 0  9991
2 40664   0.0130  72.2084 0002330  70.6220 260.3933  1.00270002 26358
INTELSAT 34 (IS-34)     
1 40874U 15039A   22223.45504562 -.00000301  00000+0  00000+0 0  9996
2 40874   0.0187 340.7609 0000692  71.7185  15.7292  1.00269277 25520
INTELSAT 31 (IS-31)     
1 41581U 16035A   22220.74351830 -.00000155  00000+0  00000+0 0  9993
2 41581   0.0314 231.4074 0000809 358.8244 259.5920  1.00271221 22575
INTELSAT 36 (IS-36)     
1 41747U 16053A   22223.20882556 -.00000040  00000+0  00000+0 0  9998
2 41747   0.0092  51.3117 0003135 315.8493  96.1511  1.00270386 21855
INTELSAT 33E (IS-33E)   
1 41748U 16053B   22223.52740338  .00000033  00000+0  00000+0 0  9996
2 41748   0.0147  61.9380 0001809  72.6839  75.1801  1.00270758 22150
INTELSAT 32E (IS-32E)   
1 41945U 17007B   22223.16854937 -.00000284  00000+0  00000+0 0  9995
2 41945   0.0147  89.3945 0000417   0.4796 247.2068  1.00268477 20133
INTELSAT 35E (IS-35E)   
1 42818U 17041A   22223.45923125 -.00000254  00000+0  00000+0 0  9998
2 42818   0.0280 110.5363 0001974  26.3739 313.8051  1.00269670 18714
INTELSAT 37E (IS-37E)   
1 42950U 17059A   22223.39841278 -.00000156  00000+0  00000+0 0  9996
2 42950   0.0243 110.9780 0002796  37.5932 296.7054  1.00274803 17961
AZERSPACE 2 (IS-38)     
1 43632U 18074A   22223.47510171  .00000120  00000+0  00000+0 0  9996
2 43632   0.0134  94.6914 0001681  49.6998  31.6377  1.00271351 14363
HORIZONS-3E             
1 43633U 18074B   22223.15674545 -.00000046  00000+0  00000+0 0  9996
2 43633   0.0033 335.8931 0001970 327.1295 241.9709  1.00270862 14244
AT&T T-16               
1 44333U 19034A   22223.37418591 -.00000132  00000+0  00000+0 0  9998
2 44333   0.0148 113.2280 0000648 308.2325 292.2024  1.00275235 11536
INTELSAT 39 (IS-39)     
1 44476U 19049B   22223.44112056  .00000017  00000+0  00000+0 0  9998
2 44476   0.0238 103.9508 0000721 250.9026 185.7590  1.00269605 11051
GALAXY 30 (G-30)        
1 46114U 20056C   22223.53807272  .00000021  00000+0  00000+0 0  9995
2 46114   0.0218 107.7213 0002731  45.8444 235.1157  1.00270264  7195
